[
  {
    "OBJECT_NAME": "STARLINK-32592",
    "OBJECT_ID": "24216D",
    "EPOCH": "2025-11-11T02:20:53.698272",
    "MEAN_MOTION": 15.27624086,
    "ECCENTRICITY": 0.000133,
    "INCLINATION": 43.0005,
    "RA_OF_ASC_NODE": 213.414,
    "ARG_OF_PERICENTER": 251.0304,
    "MEAN_ANOMALY": 109.0404,
    "EPHEMERIS_TYPE": 0,
    "CLASSIFICATION_TYPE": "U",
    "NORAD_CAT_ID": 62035,
    "ELEMENT_SET_NO": 999,
    "REV_AT_EPOCH": 5566,
    "BSTAR": 0.0010697,
    "MEAN_MOTION_DOT": 0.00029331,
    "MEAN_MOTION_DDOT": 0.0,
    "TLE_LINE1": "1 62035U 24216D   25315.09784373  .00029331  00000+0  10697-2 0  9990",
    "TLE_LINE2": "2 62035  43.0005 213.4140 0001330 251.0304 109.0404 15.27624086 55668",
    "COMMENT": "Grouped by shell and plane from TLE"
  },
  {
    "OBJECT_NAME": "STARLINK-32595",
    "OBJECT_ID": "24216F",
    "EPOCH": "2025-11-11T02:04:14.538432",
    "MEAN_MOTION": 15.27619873,
    "ECCENTRICITY": 9.72e-05,
    "INCLINATION": 42.9996,
    "RA_OF_ASC_NODE": 213.3247,
    "ARG_OF_PERICENTER": 247.7204,
    "MEAN_ANOMALY": 112.3544,
    "EPHEMERIS_TYPE": 0,
    "CLASSIFICATION_TYPE": "U",
    "NORAD_CAT_ID": 62037,
    "ELEMENT_SET_NO": 999,
    "REV_AT_EPOCH": 5566,
    "BSTAR": 0.00084031,
    "MEAN_MOTION_DOT": 0.00022962,
    "MEAN_MOTION_DDOT": 0.0,
    "TLE_LINE1": "1 62037U 24216F   25315.08627938  .00022962  00000+0  84031-3 0  9991",
    "TLE_LINE2": "2 62037  42.9996 213.3247 0000972 247.7204 112.3544 15.27619873 55666",
    "COMMENT": "Grouped by shell and plane from TLE"
  },
  {
    "OBJECT_NAME": "STARLINK-32510",
    "OBJECT_ID": "24216J",
    "EPOCH": "2025-11-11T02:41:16.447488",
    "MEAN_MOTION": 15.27600986,
    "ECCENTRICITY": 8.84e-05,
    "INCLINATION": 43.0007,
    "RA_OF_ASC_NODE": 213.5222,
    "ARG_OF_PERICENTER": 260.0841,
    "MEAN_ANOMALY": 99.9911,
    "EPHEMERIS_TYPE": 0,
    "CLASSIFICATION_TYPE": "U",
    "NORAD_CAT_ID": 62040,
    "ELEMENT_SET_NO": 999,
    "REV_AT_EPOCH": 5565,
    "BSTAR": 0.0013552,
    "MEAN_MOTION_DOT": 0.00037243,
    "MEAN_MOTION_DDOT": 0.0,
    "TLE_LINE1": "1 62040U 24216J   25315.11199592  .00037243  00000+0  13552-2 0  9996",
    "TLE_LINE2": "2 62040  43.0007 213.5222 0000884 260.0841  99.9911 15.27600986 55659",
    "COMMENT": "Grouped by shell and plane from TLE"
  },
  {
    "OBJECT_NAME": "STARLINK-32491",
    "OBJECT_ID": "24216M",
    "EPOCH": "2025-11-11T02:35:41.840160",
    "MEAN_MOTION": 15.27623934,
    "ECCENTRICITY": 8.21e-05,
    "INCLINATION": 43.0004,
    "RA_OF_ASC_NODE": 213.4925,
    "ARG_OF_PERICENTER": 273.5817,
    "MEAN_ANOMALY": 86.494,
    "EPHEMERIS_TYPE": 0,
    "CLASSIFICATION_TYPE": "U",
    "NORAD_CAT_ID": 62043,
    "ELEMENT_SET_NO": 999,
    "REV_AT_EPOCH": 5565,
    "BSTAR": 0.0011048,
    "MEAN_MOTION_DOT": 0.00030306,
    "MEAN_MOTION_DDOT": 0.0,
    "TLE_LINE1": "1 62043U 24216M   25315.10812315  .00030306  00000+0  11048-2 0  9994",
    "TLE_LINE2": "2 62043  43.0004 213.4925 0000821 273.5817  86.4940 15.27623934 55652",
    "COMMENT": "Grouped by shell and plane from TLE"
  },
  {
    "OBJECT_NAME": "STARLINK-32577",
    "OBJECT_ID": "24216N",
    "EPOCH": "2025-11-11T08:00:03.000384",
    "MEAN_MOTION": 15.27591893,
    "ECCENTRICITY": 0.0001322,
    "INCLINATION": 42.9989,
    "RA_OF_ASC_NODE": 211.825,
    "ARG_OF_PERICENTER": 260.3685,
    "MEAN_ANOMALY": 62.5581,
    "EPHEMERIS_TYPE": 0,
    "CLASSIFICATION_TYPE": "U",
    "NORAD_CAT_ID": 62044,
    "ELEMENT_SET_NO": 999,
    "REV_AT_EPOCH": 582,
    "BSTAR": 8.2854e-05,
    "MEAN_MOTION_DOT": 2.019e-05,
    "MEAN_MOTION_DDOT": 0.0,
    "TLE_LINE1": "1 62044U 24216N   25315.33336806  .00002019  00000+0  82854-4 0  9991",
    "TLE_LINE2": "2 62044  42.9989 211.8250 0001322 260.3685  62.5581 15.27591893  5828",
    "COMMENT": "Grouped by shell and plane from TLE"
  },
  {
    "OBJECT_NAME": "STARLINK-32630",
    "OBJECT_ID": "24216R",
    "EPOCH": "2025-11-11T03:43:56.557344",
    "MEAN_MOTION": 15.27596779,
    "ECCENTRICITY": 0.000114,
    "INCLINATION": 42.9998,
    "RA_OF_ASC_NODE": 212.9828,
    "ARG_OF_PERICENTER": 276.9804,
    "MEAN_ANOMALY": 83.0918,
    "EPHEMERIS_TYPE": 0,
    "CLASSIFICATION_TYPE": "U",
    "NORAD_CAT_ID": 62047,
    "ELEMENT_SET_NO": 999,
    "REV_AT_EPOCH": 5566,
    "BSTAR": 0.0010686,
    "MEAN_MOTION_DOT": 0.00029275,
    "MEAN_MOTION_DDOT": 0.0,
    "TLE_LINE1": "1 62047U 24216R   25315.15551571  .00029275  00000+0  10686-2 0  9997",
    "TLE_LINE2": "2 62047  42.9998 212.9828 0001140 276.9804  83.0918 15.27596779 55665",
    "COMMENT": "Grouped by shell and plane from TLE"
  },
  {
    "OBJECT_NAME": "STARLINK-32599",
    "OBJECT_ID": "24216S",
    "EPOCH": "2025-11-11T02:15:20.232288",
    "MEAN_MOTION": 15.27620687,
    "ECCENTRICITY": 0.0001554,
    "INCLINATION": 43.0011,
    "RA_OF_ASC_NODE": 213.3821,
    "ARG_OF_PERICENTER": 278.3195,
    "MEAN_ANOMALY": 81.7481,
    "EPHEMERIS_TYPE": 0,
    "CLASSIFICATION_TYPE": "U",
    "NORAD_CAT_ID": 62048,
    "ELEMENT_SET_NO": 999,
    "REV_AT_EPOCH": 5565,
    "BSTAR": 0.0014521,
    "MEAN_MOTION_DOT": 0.00039963,
    "MEAN_MOTION_DDOT": 0.0,
    "TLE_LINE1": "1 62048U 24216S   25315.09398417  .00039963  00000+0  14521-2 0  9996",
    "TLE_LINE2": "2 62048  43.0011 213.3821 0001554 278.3195  81.7481 15.27620687 55655",
    "COMMENT": "Grouped by shell and plane from TLE"
  },
  {
    "OBJECT_NAME": "STARLINK-32492",
    "OBJECT_ID": "24216U",
    "EPOCH": "2025-11-11T01:38:21.717024",
    "MEAN_MOTION": 15.27625988,
    "ECCENTRICITY": 0.0001361,
    "INCLINATION": 42.9982,
    "RA_OF_ASC_NODE": 213.1884,
    "ARG_OF_PERICENTER": 274.1289,
    "MEAN_ANOMALY": 85.9407,
    "EPHEMERIS_TYPE": 0,
    "CLASSIFICATION_TYPE": "U",
    "NORAD_CAT_ID": 62050,
    "ELEMENT_SET_NO": 999,
    "REV_AT_EPOCH": 5565,
    "BSTAR": 0.0019643,
    "MEAN_MOTION_DOT": 0.00054266,
    "MEAN_MOTION_DDOT": 0.0,
    "TLE_LINE1": "1 62050U 24216U   25315.06830691  .00054266  00000+0  19643-2 0  9994",
    "TLE_LINE2": "2 62050  42.9982 213.1884 0001361 274.1289  85.9407 15.27625988 55657",
    "COMMENT": "Grouped by shell and plane from TLE"
  },
  {
    "OBJECT_NAME": "STARLINK-32496",
    "OBJECT_ID": "24216V",
    "EPOCH": "2025-11-11T02:30:08.699040",
    "MEAN_MOTION": 15.27636626,
    "ECCENTRICITY": 6.78e-05,
    "INCLINATION": 42.9971,
    "RA_OF_ASC_NODE": 213.4602,
    "ARG_OF_PERICENTER": 247.5006,
    "MEAN_ANOMALY": 112.5774,
    "EPHEMERIS_TYPE": 0,
    "CLASSIFICATION_TYPE": "U",
    "NORAD_CAT_ID": 62051,
    "ELEMENT_SET_NO": 999,
    "REV_AT_EPOCH": 5565,
    "BSTAR": 0.0011422000000000001,
    "MEAN_MOTION_DOT": 0.00031356,
    "MEAN_MOTION_DDOT": 0.0,
    "TLE_LINE1": "1 62051U 24216V   25315.10426735  .00031356  00000+0  11422-2 0  9992",
    "TLE_LINE2": "2 62051  42.9971 213.4602 0000678 247.5006 112.5774 15.27636626 55653",
    "COMMENT": "Grouped by shell and plane from TLE"
  },
  {
    "OBJECT_NAME": "STARLINK-32495",
    "OBJECT_ID": "24216W",
    "EPOCH": "2025-11-11T02:46:35.030208",
    "MEAN_MOTION": 15.27627267,
    "ECCENTRICITY": 0.0001871,
    "INCLINATION": 43.0018,
    "RA_OF_ASC_NODE": 212.6842,
    "ARG_OF_PERICENTER": 251.4781,
    "MEAN_ANOMALY": 108.5868,
    "EPHEMERIS_TYPE": 0,
    "CLASSIFICATION_TYPE": "U",
    "NORAD_CAT_ID": 62052,
    "ELEMENT_SET_NO": 999,
    "REV_AT_EPOCH": 5566,
    "BSTAR": 0.0012937,
    "MEAN_MOTION_DOT": 0.00035562,
    "MEAN_MOTION_DDOT": 0.0,
    "TLE_LINE1": "1 62052U 24216W   25315.11568322  .00035562  00000+0  12937-2 0  9998",
    "TLE_LINE2": "2 62052  43.0018 212.6842 0001871 251.4781 108.5868 15.27627267 55666",
    "COMMENT": "Grouped by shell and plane from TLE"
  },
  {
    "OBJECT_NAME": "STARLINK-32494",
    "OBJECT_ID": "24216X",
    "EPOCH": "2025-11-11T01:49:26.228064",
    "MEAN_MOTION": 15.27625479,
    "ECCENTRICITY": 0.0001213,
    "INCLINATION": 42.9955,
    "RA_OF_ASC_NODE": 213.2439,
    "ARG_OF_PERICENTER": 253.1894,
    "MEAN_ANOMALY": 106.8825,
    "EPHEMERIS_TYPE": 0,
    "CLASSIFICATION_TYPE": "U",
    "NORAD_CAT_ID": 62053,
    "ELEMENT_SET_NO": 999,
    "REV_AT_EPOCH": 5565,
    "BSTAR": 0.0011459999999999999,
    "MEAN_MOTION_DOT": 0.00031451,
    "MEAN_MOTION_DDOT": 0.0,
    "TLE_LINE1": "1 62053U 24216X   25315.07599801  .00031451  00000+0  11460-2 0  9993",
    "TLE_LINE2": "2 62053  42.9955 213.2439 0001213 253.1894 106.8825 15.27625479 55654",
    "COMMENT": "Grouped by shell and plane from TLE"
  },
  {
    "OBJECT_NAME": "STARLINK-32686",
    "OBJECT_ID": "24229A",
    "EPOCH": "2025-11-11T03:30:20.667456",
    "MEAN_MOTION": 15.27618288,
    "ECCENTRICITY": 0.0001335,
    "INCLINATION": 42.9978,
    "RA_OF_ASC_NODE": 216.5622,
    "ARG_OF_PERICENTER": 280.4823,
    "MEAN_ANOMALY": 79.5878,
    "EPHEMERIS_TYPE": 0,
    "CLASSIFICATION_TYPE": "U",
    "NORAD_CAT_ID": 62192,
    "ELEMENT_SET_NO": 999,
    "REV_AT_EPOCH": 5247,
    "BSTAR": 0.0007769000000000001,
    "MEAN_MOTION_DOT": 0.00021203,
    "MEAN_MOTION_DDOT": 0.0,
    "TLE_LINE1": "1 62192U 24229A   25315.14607254  .00021203  00000+0  77690-3 0  9993",
    "TLE_LINE2": "2 62192  42.9978 216.5622 0001335 280.4823  79.5878 15.27618288 52474",
    "COMMENT": "Grouped by shell and plane from TLE"
  },
  {
    "OBJECT_NAME": "STARLINK-32684",
    "OBJECT_ID": "24229C",
    "EPOCH": "2025-11-11T03:18:31.947264",
    "MEAN_MOTION": 15.27646254,
    "ECCENTRICITY": 0.000234,
    "INCLINATION": 43.0008,
    "RA_OF_ASC_NODE": 219.9636,
    "ARG_OF_PERICENTER": 247.944,
    "MEAN_ANOMALY": 112.1163,
    "EPHEMERIS_TYPE": 0,
    "CLASSIFICATION_TYPE": "U",
    "NORAD_CAT_ID": 62194,
    "ELEMENT_SET_NO": 999,
    "REV_AT_EPOCH": 5361,
    "BSTAR": 0.0015890000000000001,
    "MEAN_MOTION_DOT": 0.00043815,
    "MEAN_MOTION_DDOT": 0.0,
    "TLE_LINE1": "1 62194U 24229C   25315.13786976  .00043815  00000+0  15890-2 0  9999",
    "TLE_LINE2": "2 62194  43.0008 219.9636 0002340 247.9440 112.1163 15.27646254 53616",
    "COMMENT": "Grouped by shell and plane from TLE"
  }
]